<?xml version="1.0" encoding="UTF-8"?>
<ndm xmlns:xsi="http://www.w3.org/2001/XMLSchema-instance" xsi:noNamespaceSchemaLocation="https://sanaregistry.org/r/ndmxml_unqualified/ndmxml-2.0.0-master-2.0.xsd">
<omm id="CCSDS_OMM_VERS" version="2.0">
<header><CREATION_DATE/><ORIGINATOR/></header><body><segment><metadata><OBJECT_NAME>ORBCOMM FM24</OBJECT_NAME><OBJECT_ID>1998-053D</OBJECT_ID><CENTER_NAME>EARTH</CENTER_NAME><REF_FRAME>TEME</REF_FRAME><TIME_SYSTEM>UTC</TIME_SYSTEM><MEAN_ELEMENT_THEORY>SGP4</MEAN_ELEMENT_THEORY></metadata><data><meanElements><EPOCH>2024-10-03T12:11:19.612032</EPOCH><MEAN_MOTION>14.36541106</MEAN_MOTION><ECCENTRICITY>.0000599</ECCENTRICITY><INCLINATION>45.0083</INCLINATION><RA_OF_ASC_NODE>44.8888</RA_OF_ASC_NODE><ARG_OF_PERICENTER>266.9053</ARG_OF_PERICENTER><MEAN_ANOMALY>93.1726</MEAN_ANOMALY></meanElements><tleParameters><EPHEMERIS_TYPE>0</EPHEMERIS_TYPE><CLASSIFICATION_TYPE>U</CLASSIFICATION_TYPE><NORAD_CAT_ID>25478</NORAD_CAT_ID><ELEMENT_SET_NO>999</ELEMENT_SET_NO><REV_AT_EPOCH>36051</REV_AT_EPOCH><BSTAR>.22876E-2</BSTAR><MEAN_MOTION_DOT>.6645E-4</MEAN_MOTION_DOT><MEAN_MOTION_DDOT>0</MEAN_MOTION_DDOT></tleParameters></data></segment></body></omm>
<omm id="CCSDS_OMM_VERS" version="2.0">
<header><CREATION_DATE/><ORIGINATOR/></header><body><segment><metadata><OBJECT_NAME>ORBCOMM FM25</OBJECT_NAME><OBJECT_ID>1998-053E</OBJECT_ID><CENTER_NAME>EARTH</CENTER_NAME><REF_FRAME>TEME</REF_FRAME><TIME_SYSTEM>UTC</TIME_SYSTEM><MEAN_ELEMENT_THEORY>SGP4</MEAN_ELEMENT_THEORY></metadata><data><meanElements><EPOCH>2024-10-03T14:45:39.365280</EPOCH><MEAN_MOTION>14.36528664</MEAN_MOTION><ECCENTRICITY>.0001943</ECCENTRICITY><INCLINATION>45.0079</INCLINATION><RA_OF_ASC_NODE>42.6344</RA_OF_ASC_NODE><ARG_OF_PERICENTER>37.2976</ARG_OF_PERICENTER><MEAN_ANOMALY>322.8007</MEAN_ANOMALY></meanElements><tleParameters><EPHEMERIS_TYPE>0</EPHEMERIS_TYPE><CLASSIFICATION_TYPE>U</CLASSIFICATION_TYPE><NORAD_CAT_ID>25479</NORAD_CAT_ID><ELEMENT_SET_NO>999</ELEMENT_SET_NO><REV_AT_EPOCH>36082</REV_AT_EPOCH><BSTAR>.27191E-2</BSTAR><MEAN_MOTION_DOT>.7925E-4</MEAN_MOTION_DOT><MEAN_MOTION_DDOT>0</MEAN_MOTION_DDOT></tleParameters></data></segment></body></omm>
<omm id="CCSDS_OMM_VERS" version="2.0">
<header><CREATION_DATE/><ORIGINATOR/></header><body><segment><metadata><OBJECT_NAME>ORBCOMM FM26</OBJECT_NAME><OBJECT_ID>1998-053F</OBJECT_ID><CENTER_NAME>EARTH</CENTER_NAME><REF_FRAME>TEME</REF_FRAME><TIME_SYSTEM>UTC</TIME_SYSTEM><MEAN_ELEMENT_THEORY>SGP4</MEAN_ELEMENT_THEORY></metadata><data><meanElements><EPOCH>2024-10-03T14:44:51.314784</EPOCH><MEAN_MOTION>14.35828144</MEAN_MOTION><ECCENTRICITY>.0004142</ECCENTRICITY><INCLINATION>45.0074</INCLINATION><RA_OF_ASC_NODE>37.4374</RA_OF_ASC_NODE><ARG_OF_PERICENTER>68.6403</ARG_OF_PERICENTER><MEAN_ANOMALY>291.4886</MEAN_ANOMALY></meanElements><tleParameters><EPHEMERIS_TYPE>0</EPHEMERIS_TYPE><CLASSIFICATION_TYPE>U</CLASSIFICATION_TYPE><NORAD_CAT_ID>25480</NORAD_CAT_ID><ELEMENT_SET_NO>999</ELEMENT_SET_NO><REV_AT_EPOCH>36075</REV_AT_EPOCH><BSTAR>.22166E-2</BSTAR><MEAN_MOTION_DOT>.6341E-4</MEAN_MOTION_DOT><MEAN_MOTION_DDOT>0</MEAN_MOTION_DDOT></tleParameters></data></segment></body></omm>
<omm id="CCSDS_OMM_VERS" version="2.0">
<header><CREATION_DATE/><ORIGINATOR/></header><body><segment><metadata><OBJECT_NAME>ORBCOMM FM27</OBJECT_NAME><OBJECT_ID>1998-053G</OBJECT_ID><CENTER_NAME>EARTH</CENTER_NAME><REF_FRAME>TEME</REF_FRAME><TIME_SYSTEM>UTC</TIME_SYSTEM><MEAN_ELEMENT_THEORY>SGP4</MEAN_ELEMENT_THEORY></metadata><data><meanElements><EPOCH>2024-10-03T12:50:04.215264</EPOCH><MEAN_MOTION>14.36521088</MEAN_MOTION><ECCENTRICITY>.0001916</ECCENTRICITY><INCLINATION>45.0062</INCLINATION><RA_OF_ASC_NODE>43.2709</RA_OF_ASC_NODE><ARG_OF_PERICENTER>215.9897</ARG_OF_PERICENTER><MEAN_ANOMALY>144.0822</MEAN_ANOMALY></meanElements><tleParameters><EPHEMERIS_TYPE>0</EPHEMERIS_TYPE><CLASSIFICATION_TYPE>U</CLASSIFICATION_TYPE><NORAD_CAT_ID>25481</NORAD_CAT_ID><ELEMENT_SET_NO>999</ELEMENT_SET_NO><REV_AT_EPOCH>36074</REV_AT_EPOCH><BSTAR>.25818E-2</BSTAR><MEAN_MOTION_DOT>.7516E-4</MEAN_MOTION_DOT><MEAN_MOTION_DDOT>0</MEAN_MOTION_DDOT></tleParameters></data></segment></body></omm>
<omm id="CCSDS_OMM_VERS" version="2.0">
<header><CREATION_DATE/><ORIGINATOR/></header><body><segment><metadata><OBJECT_NAME>ORBCOMM FM28</OBJECT_NAME><OBJECT_ID>1998-053H</OBJECT_ID><CENTER_NAME>EARTH</CENTER_NAME><REF_FRAME>TEME</REF_FRAME><TIME_SYSTEM>UTC</TIME_SYSTEM><MEAN_ELEMENT_THEORY>SGP4</MEAN_ELEMENT_THEORY></metadata><data><meanElements><EPOCH>2024-10-03T11:31:09.836544</EPOCH><MEAN_MOTION>14.36877027</MEAN_MOTION><ECCENTRICITY>.0001752</ECCENTRICITY><INCLINATION>45.0066</INCLINATION><RA_OF_ASC_NODE>341.5464</RA_OF_ASC_NODE><ARG_OF_PERICENTER>108.6227</ARG_OF_PERICENTER><MEAN_ANOMALY>251.4811</MEAN_ANOMALY></meanElements><tleParameters><EPHEMERIS_TYPE>0</EPHEMERIS_TYPE><CLASSIFICATION_TYPE>U</CLASSIFICATION_TYPE><NORAD_CAT_ID>25482</NORAD_CAT_ID><ELEMENT_SET_NO>999</ELEMENT_SET_NO><REV_AT_EPOCH>36141</REV_AT_EPOCH><BSTAR>.20299E-2</BSTAR><MEAN_MOTION_DOT>.5921E-4</MEAN_MOTION_DOT><MEAN_MOTION_DDOT>0</MEAN_MOTION_DDOT></tleParameters></data></segment></body></omm>
<omm id="CCSDS_OMM_VERS" version="2.0">
<header><CREATION_DATE/><ORIGINATOR/></header><body><segment><metadata><OBJECT_NAME>ORBCOMM FM30</OBJECT_NAME><OBJECT_ID>1999-065A</OBJECT_ID><CENTER_NAME>EARTH</CENTER_NAME><REF_FRAME>TEME</REF_FRAME><TIME_SYSTEM>UTC</TIME_SYSTEM><MEAN_ELEMENT_THEORY>SGP4</MEAN_ELEMENT_THEORY></metadata><data><meanElements><EPOCH>2024-10-03T06:49:14.905920</EPOCH><MEAN_MOTION>14.35972130</MEAN_MOTION><ECCENTRICITY>.0004597</ECCENTRICITY><INCLINATION>45.0304</INCLINATION><RA_OF_ASC_NODE>224.6710</RA_OF_ASC_NODE><ARG_OF_PERICENTER>166.6426</ARG_OF_PERICENTER><MEAN_ANOMALY>193.4545</MEAN_ANOMALY></meanElements><tleParameters><EPHEMERIS_TYPE>0</EPHEMERIS_TYPE><CLASSIFICATION_TYPE>U</CLASSIFICATION_TYPE><NORAD_CAT_ID>25980</NORAD_CAT_ID><ELEMENT_SET_NO>999</ELEMENT_SET_NO><REV_AT_EPOCH>29750</REV_AT_EPOCH><BSTAR>.20483E-2</BSTAR><MEAN_MOTION_DOT>.5866E-4</MEAN_MOTION_DOT><MEAN_MOTION_DDOT>0</MEAN_MOTION_DDOT></tleParameters></data></segment></body></omm>
<omm id="CCSDS_OMM_VERS" version="2.0">
<header><CREATION_DATE/><ORIGINATOR/></header><body><segment><metadata><OBJECT_NAME>ORBCOMM FM31</OBJECT_NAME><OBJECT_ID>1999-065B</OBJECT_ID><CENTER_NAME>EARTH</CENTER_NAME><REF_FRAME>TEME</REF_FRAME><TIME_SYSTEM>UTC</TIME_SYSTEM><MEAN_ELEMENT_THEORY>SGP4</MEAN_ELEMENT_THEORY></metadata><data><meanElements><EPOCH>2024-10-03T12:41:50.560224</EPOCH><MEAN_MOTION>14.35950886</MEAN_MOTION><ECCENTRICITY>.0002432</ECCENTRICITY><INCLINATION>45.0222</INCLINATION><RA_OF_ASC_NODE>217.1132</RA_OF_ASC_NODE><ARG_OF_PERICENTER>209.0728</ARG_OF_PERICENTER><MEAN_ANOMALY>150.9985</MEAN_ANOMALY></meanElements><tleParameters><EPHEMERIS_TYPE>0</EPHEMERIS_TYPE><CLASSIFICATION_TYPE>U</CLASSIFICATION_TYPE><NORAD_CAT_ID>25981</NORAD_CAT_ID><ELEMENT_SET_NO>999</ELEMENT_SET_NO><REV_AT_EPOCH>29709</REV_AT_EPOCH><BSTAR>.22516E-2</BSTAR><MEAN_MOTION_DOT>.646E-4</MEAN_MOTION_DOT><MEAN_MOTION_DDOT>0</MEAN_MOTION_DDOT></tleParameters></data></segment></body></omm>
<omm id="CCSDS_OMM_VERS" version="2.0">
<header><CREATION_DATE/><ORIGINATOR/></header><body><segment><metadata><OBJECT_NAME>ORBCOMM FM32</OBJECT_NAME><OBJECT_ID>1999-065C</OBJECT_ID><CENTER_NAME>EARTH</CENTER_NAME><REF_FRAME>TEME</REF_FRAME><TIME_SYSTEM>UTC</TIME_SYSTEM><MEAN_ELEMENT_THEORY>SGP4</MEAN_ELEMENT_THEORY></metadata><data><meanElements><EPOCH>2024-10-03T07:59:47.591808</EPOCH><MEAN_MOTION>14.34969181</MEAN_MOTION><ECCENTRICITY>.0004495</ECCENTRICITY><INCLINATION>45.0145</INCLINATION><RA_OF_ASC_NODE>232.8689</RA_OF_ASC_NODE><ARG_OF_PERICENTER>202.8114</ARG_OF_PERICENTER><MEAN_ANOMALY>157.2534</MEAN_ANOMALY></meanElements><tleParameters><EPHEMERIS_TYPE>0</EPHEMERIS_TYPE><CLASSIFICATION_TYPE>U</CLASSIFICATION_TYPE><NORAD_CAT_ID>25982</NORAD_CAT_ID><ELEMENT_SET_NO>999</ELEMENT_SET_NO><REV_AT_EPOCH>29768</REV_AT_EPOCH><BSTAR>.21656E-2</BSTAR><MEAN_MOTION_DOT>.6084E-4</MEAN_MOTION_DOT><MEAN_MOTION_DDOT>0</MEAN_MOTION_DDOT></tleParameters></data></segment></body></omm>

</ndm>
