ORBCOMM FM24            
1 25478U 98053D   24277.50786588  .00006645  00000+0  22876-2 0  9997
2 25478  45.0083  44.8888 0000599 266.9053  93.1726 14.36541106360516
ORBCOMM FM25            
1 25479U 98053E   24277.61503895  .00007925  00000+0  27191-2 0  9995
2 25479  45.0079  42.6344 0001943  37.2976 322.8007 14.36528664360824
ORBCOMM FM26            
1 25480U 98053F   24277.61448281  .00006341  00000+0  22166-2 0  9992
2 25480  45.0074  37.4374 0004142  68.6403 291.4886 14.35828144360756
ORBCOMM FM27            
1 25481U 98053G   24277.53477101  .00007516  00000+0  25818-2 0  9999
2 25481  45.0062  43.2709 0001916 215.9897 144.0822 14.36521088360741
ORBCOMM FM28            
1 25482U 98053H   24277.47997496  .00005921  00000+0  20299-2 0  9993
2 25482  45.0066 341.5464 0001752 108.6227 251.4811 14.36877027361414
ORBCOMM FM30            
1 25980U 99065A   24277.28420030  .00005866  00000+0  20483-2 0  9997
2 25980  45.0304 224.6710 0004597 166.6426 193.4545 14.35972130297509
ORBCOMM FM31            
1 25981U 99065B   24277.52905741  .00006460  00000+0  22516-2 0  9992
2 25981  45.0222 217.1132 0002432 209.0728 150.9985 14.35950886297091
ORBCOMM FM32            
1 25982U 99065C   24277.33318972  .00006084  00000+0  21656-2 0  9992
2 25982  45.0145 232.8689 0004495 202.8114 157.2534 14.34969181297680
